{
  "type": "FeatureCollection",
  "features": [
    {
      "type": "Feature",
      "properties": {
        "norad_id": 41330,
        "name": "COSMOS 2514 (751)",
        "group": "glo-ops",
        "lat": -46.85175875051956,
        "lon": -70.77404337580802,
        "alt_km": 19133.59119309669,
        "timestamp": "2025-12-27T22:26:48.864861+00:00",
        "meta_object_name": "COSMOS 2514 (751)",
        "meta_object_id": "2016-008A",
        "meta_epoch": "2025-12-27T01:35:56.250528",
        "meta_mean_motion": 2.13102531,
        "meta_eccentricity": 0.00114841,
        "meta_inclination": 65.1254,
        "meta_ra_of_asc_node": 318.9135,
        "meta_arg_of_pericenter": 219.9795,
        "meta_mean_anomaly": 139.9404,
        "meta_ephemeris_type": 0,
        "meta_classification_type": "U",
        "meta_norad_cat_id": 41330,
        "meta_element_set_no": 999,
        "meta_rev_at_epoch": 7695,
        "meta_bstar": 0,
        "meta_mean_motion_dot": -3.7e-07,
        "meta_mean_motion_ddot": 0,
        "tle_line1": "1 41330U 16008A   25361.06662327 -.00000037  00000+0  00000+0 0  9994",
        "tle_line2": "2 41330  65.1254 318.9135 0011484 219.9795 139.9404  2.13102531 76951"
      },
      "geometry": {
        "type": "Point",
        "coordinates": [
          -70.77404337580802,
          -46.85175875051956
        ]
      }
    },
    {
      "type": "Feature",
      "properties": {
        "norad_id": 42939,
        "name": "COSMOS 2522 (752)",
        "group": "glo-ops",
        "lat": 57.8998003284076,
        "lon": -111.42438261804034,
        "alt_km": 19137.70636740395,
        "timestamp": "2025-12-27T22:26:48.864872+00:00",
        "meta_object_name": "COSMOS 2522 (752)",
        "meta_object_id": "2017-055A",
        "meta_epoch": "2025-12-26T21:43:05.051712",
        "meta_mean_motion": 2.13102008,
        "meta_eccentricity": 0.00062768,
        "meta_inclination": 64.0768,
        "meta_ra_of_asc_node": 197.7464,
        "meta_arg_of_pericenter": 223.1199,
        "meta_mean_anomaly": 136.885,
        "meta_ephemeris_type": 0,
        "meta_classification_type": "U",
        "meta_norad_cat_id": 42939,
        "meta_element_set_no": 999,
        "meta_rev_at_epoch": 6430,
        "meta_bstar": 0,
        "meta_mean_motion_dot": 1.18e-06,
        "meta_mean_motion_ddot": 0,
        "tle_line1": "1 42939U 17055A   25360.90491958  .00000118  00000+0  00000+0 0  9994",
        "tle_line2": "2 42939  64.0768 197.7464 0006276 223.1199 136.8850  2.13102008 64307"
      },
      "geometry": {
        "type": "Point",
        "coordinates": [
          -111.42438261804034,
          57.8998003284076
        ]
      }
    },
    {
      "type": "Feature",
      "properties": {
        "norad_id": 43508,
        "name": "COSMOS 2527 (756)",
        "group": "glo-ops",
        "lat": 63.529974125843125,
        "lon": -166.62337082503677,
        "alt_km": 19137.556049507453,
        "timestamp": "2025-12-27T22:26:48.864882+00:00",
        "meta_object_name": "COSMOS 2527 (756)",
        "meta_object_id": "2018-053A",
        "meta_epoch": "2025-12-25T22:15:18.516960",
        "meta_mean_motion": 2.13102285,
        "meta_eccentricity": 0.00091278,
        "meta_inclination": 65.4787,
        "meta_ra_of_asc_node": 79.6912,
        "meta_arg_of_pericenter": 228.9036,
        "meta_mean_anomaly": 131.0649,
        "meta_ephemeris_type": 0,
        "meta_classification_type": "U",
        "meta_norad_cat_id": 43508,
        "meta_element_set_no": 999,
        "meta_rev_at_epoch": 5858,
        "meta_bstar": 0,
        "meta_mean_motion_dot": -3e-08,
        "meta_mean_motion_ddot": 0,
        "tle_line1": "1 43508U 18053A   25359.92729765 -.00000003  00000+0  00000+0 0  9990",
        "tle_line2": "2 43508  65.4787  79.6912 0009127 228.9036 131.0649  2.13102285 58586"
      },
      "geometry": {
        "type": "Point",
        "coordinates": [
          -166.62337082503677,
          63.529974125843125
        ]
      }
    },
    {
      "type": "Feature",
      "properties": {
        "norad_id": 43687,
        "name": "COSMOS 2529 (757)",
        "group": "glo-ops",
        "lat": 23.06906094936677,
        "lon": -149.77868961595084,
        "alt_km": 19139.161160598982,
        "timestamp": "2025-12-27T22:26:48.864893+00:00",
        "meta_object_name": "COSMOS 2529 (757)",
        "meta_object_id": "2018-086A",
        "meta_epoch": "2025-12-26T23:06:55.462752",
        "meta_mean_motion": 2.13102033,
        "meta_eccentricity": 0.00068493,
        "meta_inclination": 64.293,
        "meta_ra_of_asc_node": 198.4076,
        "meta_arg_of_pericenter": 253.3441,
        "meta_mean_anomaly": 106.6358,
        "meta_ephemeris_type": 0,
        "meta_classification_type": "U",
        "meta_norad_cat_id": 43687,
        "meta_element_set_no": 999,
        "meta_rev_at_epoch": 5561,
        "meta_bstar": 0,
        "meta_mean_motion_dot": 1.18e-06,
        "meta_mean_motion_ddot": 0,
        "tle_line1": "1 43687U 18086A   25360.96314193  .00000118  00000+0  00000+0 0  9991",
        "tle_line2": "2 43687  64.2930 198.4076 0006849 253.3441 106.6358  2.13102033 55619"
      },
      "geometry": {
        "type": "Point",
        "coordinates": [
          -149.77868961595084,
          23.06906094936677
        ]
      }
    },
    {
      "type": "Feature",
      "properties": {
        "norad_id": 44299,
        "name": "COSMOS 2534 (758)",
        "group": "glo-ops",
        "lat": 17.845607507690247,
        "lon": 9.488579807442392,
        "alt_km": 19140.256643415134,
        "timestamp": "2025-12-27T22:26:48.864904+00:00",
        "meta_object_name": "COSMOS 2534 (758)",
        "meta_object_id": "2019-030A",
        "meta_epoch": "2025-12-27T11:49:04.620576",
        "meta_mean_motion": 2.13102152,
        "meta_eccentricity": 0.0008619,
        "meta_inclination": 64.3665,
        "meta_ra_of_asc_node": 198.3955,
        "meta_arg_of_pericenter": 283.8926,
        "meta_mean_anomaly": 256.5547,
        "meta_ephemeris_type": 0,
        "meta_classification_type": "U",
        "meta_norad_cat_id": 44299,
        "meta_element_set_no": 999,
        "meta_rev_at_epoch": 5126,
        "meta_bstar": 0,
        "meta_mean_motion_dot": 1.23e-06,
        "meta_mean_motion_ddot": 0,
        "tle_line1": "1 44299U 19030A   25361.49241459  .00000123  00000+0  00000+0 0  9990",
        "tle_line2": "2 44299  64.3665 198.3955 0008619 283.8926 256.5547  2.13102152 51267"
      },
      "geometry": {
        "type": "Point",
        "coordinates": [
          9.488579807442392,
          17.845607507690247
        ]
      }
    },
    {
      "type": "Feature",
      "properties": {
        "norad_id": 44850,
        "name": "COSMOS 2544 (759)",
        "group": "glo-ops",
        "lat": 33.43818066278141,
        "lon": -118.06540700446875,
        "alt_km": 19137.445786972185,
        "timestamp": "2025-12-27T22:26:48.864915+00:00",
        "meta_object_name": "COSMOS 2544 (759)",
        "meta_object_id": "2019-088A",
        "meta_epoch": "2025-12-27T06:42:41.595840",
        "meta_mean_motion": 2.13102058,
        "meta_eccentricity": 0.001444,
        "meta_inclination": 65.467,
        "meta_ra_of_asc_node": 79.4725,
        "meta_arg_of_pericenter": 250.8166,
        "meta_mean_anomaly": 109.0715,
        "meta_ephemeris_type": 0,
        "meta_classification_type": "U",
        "meta_norad_cat_id": 44850,
        "meta_element_set_no": 999,
        "meta_rev_at_epoch": 4705,
        "meta_bstar": 0,
        "meta_mean_motion_dot": -1.2e-07,
        "meta_mean_motion_ddot": 0,
        "tle_line1": "1 44850U 19088A   25361.27964810 -.00000012  00000+0  00000+0 0  9993",
        "tle_line2": "2 44850  65.4670  79.4725 0014440 250.8166 109.0715  2.13102058 47057"
      },
      "geometry": {
        "type": "Point",
        "coordinates": [
          -118.06540700446875,
          33.43818066278141
        ]
      }
    },
    {
      "type": "Feature",
      "properties": {
        "norad_id": 45358,
        "name": "COSMOS 2545 (760)",
        "group": "glo-ops",
        "lat": -6.445556931777288,
        "lon": -44.67054858083201,
        "alt_km": 19137.169049022003,
        "timestamp": "2025-12-27T22:26:48.864926+00:00",
        "meta_object_name": "COSMOS 2545 (760)",
        "meta_object_id": "2020-018A",
        "meta_epoch": "2025-12-27T00:08:46.380768",
        "meta_mean_motion": 2.13102633,
        "meta_eccentricity": 0.00112617,
        "meta_inclination": 64.4611,
        "meta_ra_of_asc_node": 318.4699,
        "meta_arg_of_pericenter": 250.7863,
        "meta_mean_anomaly": 109.0965,
        "meta_ephemeris_type": 0,
        "meta_classification_type": "U",
        "meta_norad_cat_id": 45358,
        "meta_element_set_no": 999,
        "meta_rev_at_epoch": 4499,
        "meta_bstar": 0,
        "meta_mean_motion_dot": -3.8e-07,
        "meta_mean_motion_ddot": 0,
        "tle_line1": "1 45358U 20018A   25361.00609237 -.00000038  00000+0  00000+0 0  9990",
        "tle_line2": "2 45358  64.4611 318.4699 0011261 250.7863 109.0965  2.13102633 44998"
      },
      "geometry": {
        "type": "Point",
        "coordinates": [
          -44.67054858083201,
          -6.445556931777288
        ]
      }
    }
  ]
}